#dP2019 12  7  0  0  0.00000000      96 __u+U ITR00 FIT  IAC
## 2082 518400.00000000   900.00000000 58824 0.0000000000000
+  105   C06C07C08C09C10C11C12C13C14C16C19C20C21C22C23C24C25
+        C26C27C28C29C30C32C33C34C35C36C37E01E02E03E04E05E07
+        E08E09E11E12E13E14E15E18E19E21E24E25E26E27E30E31E33
+        E36G01G02G03G04G05G06G07G08G09G10G11G12G13G14G15G16
+        G17G18G19G20G21G22G23G24G25G26G27G28G29G30G31G32R01
+        R02R03R05R07R08R09R11R12R13R14R15R16R17R18R19R20R21
+        R22R23R26  0  0  0  0  0  0  0  0  0  0  0  0  0  0
++         8  8  9  8  8  8  8  8  8  8  8  8  8  8  7  7  7
++         7  8  7  8  8  8  8  8  8  8  8  4  5  5  5  5  5
++         4  5  5  4  4  4  4  5  5  4  5  5  4  4  4  4  5
++         5  3  3  3  4  4  3  3  3  4  4  3  4  4  4  4  3
++         3  4  3  4  3  3  4  4  4  4  3  4  4  3  4  4  6
++         6  6  5  5  5  6  5  5  6  5  5  6  5  5  6  6  6
++         5  5  8  0  0  0  0  0  0  0  0  0  0  0  0  0  0
%c M  cc GPS ccc cccc cccc cccc cccc ccccc ccccc ccccc ccccc
%c cc cc ccc ccc cccc cccc cccc cccc ccccc ccccc ccccc ccccc
%f  0.0000000  0.000000000  0.00000000000  0.000000000000000
%f  0.0000000  0.000000000  0.00000000000  0.000000000000000
%i    0    0    0    0      0      0      0      0         0
%i    0    0    0    0      0      0      0      0         0
/* INFORMATION & ANALYSIS CENTER (IAC)      ULTRA-RAPID DATA
/* S/V CLOCKS ARE ALIGNED TO GNSS TIME                      
/* G:C1WC2W R:C1PC2P E:C1XC5X C:C2IC6I J:C1CC2S             
/* PCV:IGS14_2080 OL/AL:FES2004  NONE     YN ORB:CoN CLK:CoN
*  2019 12 07 12  0  0.00000000
PC06 -16970.189535  37963.470402  -5183.818665    293.565382
PC07  -9308.709213  26190.427225  31989.093688    187.061840
PC08 -23776.584062  21878.062000 -27186.142389    -49.775444
PC09  -7363.634922  39966.544316  10713.393207    170.216055
PC10   6364.439438  33634.481344  25051.101183   -438.014782
PC11  16950.019938   1848.168236 -22013.024995    -46.163513
PC12   2998.777667  18459.696822 -20684.522152    303.069698
PC13  -6669.866581  24295.653817 -33797.417053    143.955306
PC14  18287.021548  12634.827468  16924.892456    354.303707
PC16 -15110.685109  39128.309123  -3117.805644   -946.706989
PC19 -17494.726463  -2670.482335 -21558.268969    264.430013
PC20 -16342.039666 -20199.850862 -10140.799006   -385.488902
PC21   5392.771448  26293.894440  -7657.284478    126.085581
PC22  -8517.070077  16756.238534 -20638.114457   -478.077469
PC23  17466.363469 -11005.106869 -18767.631497   -870.845755
PC24  21304.722898  12320.509288  13128.307353   -882.394225
PC25  27558.371650     -7.524411  -4328.305450   -439.078860
PC26   3749.668836  16294.832668  22335.549469    487.710031
PC27   5083.851739 -23050.145543  14888.105008    238.287061
PC28  18235.629410 -21034.628321  -1833.034979    229.338638
PC29 -20457.091600   7541.766377  17418.401575    156.372607
PC30 -11294.905031 -11384.603375  22843.011661    236.270016
PC32  -5554.844891 -26246.409654   7680.124506   -858.078461
PC33  17563.443844   2673.574131  21521.075630   -644.350016
PC34  11575.655205  11092.134242 -22839.193823   -292.104190
PC35 -17575.829047  21568.367013   1954.737836   -632.556715
PC36 -27584.817670   -739.241242   4180.935366 999999.999999
PC37  -2766.191508 -16348.346510 -22425.781480   -862.692605
PE01 -25677.810647 -14680.147298   1220.797078   -747.369607
PE02  25686.300591  14638.775098  -1279.431682     97.053274
PE03  14993.097921  13712.517819  21522.003020   -241.209415
PE04 -16535.378427   8661.537345 -22976.022549   -420.457140
PE05   4648.568354  28269.533070   7441.134161   -424.877501
PE07   8347.042256 -26218.226260  10899.125857   -309.426819
PE08  16297.788216  -8971.276417  23014.563623   6252.626583
PE09  -8056.993974  26327.445423 -10892.049475   6229.055717
PE11 -17502.956110  19856.743789 -13240.971358    264.984746
PE12 -26969.994505  10711.432881   5820.588376   6063.343743
PE13  17595.123766 -19871.113621  13110.294859    396.134442
PE14  21704.834947  -1639.617276 -23718.139304   -821.703838
PE15  26888.021080 -11049.803940  -5551.015400    885.219374
PE18 -16976.233402  10046.897198  14166.458124   -917.310289
PE19 -14154.512264 -15838.308884 -20620.648095     -2.550929
PE21 -13122.445477 -20754.873191 -16527.742519   -570.014905
PE24  -7351.382702  14721.790084  24598.660978   5728.558063
PE25  13019.526974  20758.962916  16613.758243   -497.791776
PE26  -2240.847483 -17109.769860  24056.803343   3791.453771
PE27   7252.904578 -14714.277008 -24630.194735    330.102108
PE30  23343.525399     77.633113 -18194.393841   4324.890272
PE31 -23305.509723     65.727774  18261.609033   -470.819113
PE33 -20423.127695  -4281.783000  21004.983406   -471.583117
PE36   2018.358254  17052.086382 -24101.551452    627.366738
PG01   4098.109697  14393.131564 -22154.558925   -221.853415
PG02  18026.874148 -14655.580560  13391.716868   -361.615264
PG03  11987.865723  22292.183195  -8257.182262    -48.762259
PG04   3336.864935  21527.903445  15189.530314    -17.628947
PG05   5962.048330 -15276.495149  20718.350394     -4.385297
PG06  25807.487721  -6202.017321   1397.465915   -146.435364
PG07  20511.053524   7479.915556  15732.596266   -164.794987
PG08  -5206.022331  25576.543344  -4171.699315    -15.908922
PG09   9933.862776  14795.306803  19634.850249   -102.160575
PG10 -20429.641121  -6620.654629 -15708.650758   -163.145682
PG11   2254.147520  17894.938575 -20083.308184   -426.385711
PG12  -6900.000492 -22668.957770 -12390.392365    175.745885
PG13  13042.267652 -22935.083990   2554.199380    -28.184976
PG14 -16880.934791  14534.344052 -13998.939662    -46.237235
PG15   1926.042518 -25824.397403  -5185.181299   -267.390717
PG16  -8316.614082  12898.641282  21419.366078   -100.585868
PG17  16125.475279  -4015.738171 -20275.103426    176.448081
PG18  -5083.064144  16399.518086 -20746.930044    105.115126
PG19  17472.319686 -11088.613740 -16951.192755   -229.611239
PG20 -22255.570842 -13301.558869  -6324.417489    527.615439
PG21 -22280.101351  -4604.235845  14316.353072    -74.578950
PG22   6393.197063  21235.591652 -14471.873351   -776.235132
PG23   4032.918656  22008.890661  14357.726955   -151.042416
PG24  -2273.758119 -15688.922155 -21471.402380     -5.880403
PG25 -17613.974634 -20072.192917      1.329740    -17.412784
PG26 -15544.187884   5299.964597  20891.649513    100.474452
PG27 -12354.640797  22247.027484   6898.236911   -143.012428
PG28  19006.297287   7463.524119 -16312.420513    751.759573
PG29  -7603.313938 -15938.171983  19802.667125     24.796033
PG30  26013.482195    140.467726   5886.594754   -100.496794
PG31 -25592.520372   7064.734751   3713.297935     -8.189249
PG32 -16529.881612   4809.533361 -20129.883220    148.174729
PR01  -1510.527219 -24056.927336   8320.749027     53.756339
PR02 -10167.079696 -19944.486131 -12251.702217    401.285946
PR03 -11677.602402  -3430.795583 -22392.035000      6.076650
PR05   2540.687482  24697.220474  -5799.517299     40.779321
PR07  11604.659850   2728.949283  22572.233224    -30.408021
PR08   6443.105870 -14849.208863  19763.186255     13.959144
PR09  21632.726789  10990.274194   7991.528159    105.001323
PR11  13905.241249  -5975.616818 -20527.970937     17.476199
PR12  -3622.737379 -12121.052865 -22124.194736     85.793615
PR13 -20020.919969 -11532.512679 -10823.349066    -31.956011
PR14 -24204.817656  -4395.924836   6739.708192     45.820608
PR15 -14596.990878   5364.723420  20243.904072    105.076506
PR16   4005.627106  12252.584972  21969.985473     -0.311403
PR17 -18326.321694   6242.168321  16647.248544    281.862098
PR18 -19325.139569  16570.570366   1160.581638     17.131379
PR19 -10664.091316  17822.696359 -14809.742855    -67.713275
PR20   6391.250260   8209.419213 -23276.954640   -398.215248
PR21  18557.090240  -6854.580330 -16077.909813    -90.076693
PR22  18500.656193 -17545.198214   1931.425873     -4.486807
PR23   5276.497298 -16123.736993  19044.351414    271.632650
PR26   3253.321938  10842.276271 -22846.307693     14.005705
EOF
